45440,ONEWEB-0037,2020,109.8,148.0,+,87.9,Active,1,LEO,Kazakhstan,UK,Commercial,Communications,Soyuz,1 45440U 20020S   24086.55324309  .00000562  00000+0  15492-2 0  9997,2 45440  87.9037 182.6220 0002310 102.5270 257.6117 13.11416930196180,13.1141693,0.000231,LEO
45441,ONEWEB-0042,2020,109.81,148.0,+,87.9,Active,1,LEO,Kazakhstan,UK,Commercial,Communications,Soyuz,1 45441U 20020T   24086.56122711  .00000540  00000+0  14873-2 0  9990,2 45441  87.9040 182.6464 0001739  96.4559 263.6767 13.11418441196154,13.11418441,0.0001739,LEO
45442,ONEWEB-0098,2020,109.81,148.0,+,87.9,Active,1,LEO,Kazakhstan,UK,Commercial,Communications,Soyuz,1 45442U 20020U   24086.55486761  .00000504  00000+0  13868-2 0  9991,2 45442  87.9041 182.6571 0001804 108.0785 252.0540 13.11416842196131,13.11416842,0.0001804,LEO
45443,ONEWEB-0055,2020,109.8,148.0,+,87.9,Active,1,LEO,Kazakhstan,UK,Commercial,Communications,Soyuz,1 45443U 20020V   24086.54268874  .00000022  00000+0  27141-4 0  9990,2 45443  87.9044 182.6627 0001857 106.9101 253.2231 13.11421467196100,13.11421467,0.0001857,LEO
45444,ONEWEB-0093,2020,109.8,148.0,+,87.9,Active,1,LEO,Kazakhstan,UK,Commercial,Communications,Soyuz,1 45444U 20020W   24086.51589798 -.00000389  00000+0 -11323-2 0  9990,2 45444  87.9041 182.6483 0001599 103.5245 256.6061 13.11416552196166,13.11416552,0.0001599,LEO
45445,ONEWEB-0029,2020,109.8,148.0,+,87.9,Active,1,LEO,Kazakhstan,UK,Commercial,Communications,Soyuz,1 45445U 20020X   24086.53538115 -.00000279  00000+0 -82197-3 0  9996,2 45445  87.9042 182.6578 0001935  97.4753 262.6595 13.11418459196147,13.11418459,0.0001935,LEO
45446,ONEWEB-0068,2020,109.8,148.0,+,87.9,Active,1,LEO,Kazakhstan,UK,Commercial,Communications,Soyuz,1 45446U 20020Y   24086.51021026 -.00000221  00000+0 -65987-3 0  9998,2 45446  87.9042 182.6482 0001746 102.0305 258.1019 13.11415878196084,13.11415878,0.0001746,LEO
45447,ONEWEB-0046,2020,109.8,148.0,+,87.9,Active,1,LEO,Kazakhstan,UK,Commercial,Communications,Soyuz,1 45447U 20020Z   24086.50777932 -.00000061  00000+0 -20850-3 0  9994,2 45447  87.9040 182.6609 0002255  99.9167 260.2216 13.11415916196097,13.11415916,0.0002255,LEO
